FLOCK 4G-15             
1 62678U 25009BX  26068.71779869  .00012647  00000+0  47575-3 0  9991
2 62678  97.4054 151.1927 0003699 316.8208  43.2740 15.27266411121358
STARLINK-36113          
1 66982U 25288Z   26068.24506035  .00028263  00000+0  10333-2 0  9995
2 66982  42.9997  25.5880 0001041 268.0745  91.9988 15.27560673 15225
